[
    {
        "Altitude(m)": 604221.1933295109,
        "Argument of Periapsis(deg)": 0.0,
        "Eccentricity": 0.0,
        "Inclination(deg)": 60.0,
        "Latitude(deg)": 14.117183137845544,
        "Longitude(deg)": -106.6658407425733,
        "Mean Anomaly(deg)": -343.63640000000004,
        "RAAN(deg)": 345.0,
        "Satellite Name": "Test1 1519",
        "Satellite Number": 1519,
        "Semi-Major Axis(m)": 6980739.136638005,
        "Time(s)": 0
    },
    {
        "Altitude(m)": 604235.3338421497,
        "Argument of Periapsis(deg)": 0.00010418945913296404,
        "Eccentricity": 0.0,
        "Inclination(deg)": 60.0,
        "Latitude(deg)": 14.651579795416296,
        "Longitude(deg)": -106.3773936643423,
        "Mean Anomaly(deg)": -343.01629385453816,
        "RAAN(deg)": 344.99957995086027,
        "Satellite Name": "Test1 1519",
        "Satellite Number": 1519,
        "Semi-Major Axis(m)": 6980739.136638005,
        "Time(s)": 10
    }
]